{"type":"FeatureCollection","features":[{"type":"Feature","properties":{"":""},"geometry":{"type":"Polygon","coordinates":[[[-1.120972,53.923941],[-1.093106,53.954797],[-1.10497,53.961128],[-1.117385,53.968594],[-1.12649,53.977681],[-1.136974,53.988226],[-1.138629,53.990822],[-1.150768,53.988713],[-1.169253,53.975085],[-1.180289,53.959992],[-1.177806,53.941645],[-1.164287,53.926703],[-1.153251,53.920042],[-1.120972,53.923941]]]}},{"type":"Feature","properties":{},"geometry":{"type":"Polygon","coordinates":[[[-1.150826,53.989064],[-1.16208,53.993903],[-1.204996,53.961679],[-1.193113,53.928265],[-1.172979,53.916213],[-1.154495,53.920101],[-1.164727,53.927293],[-1.17793,53.941672],[-1.18024,53.959737],[-1.168688,53.975658],[-1.159446,53.982452],[-1.150826,53.989064]]]}},{"type":"Feature","properties":{},"geometry":{"type":"Polygon","coordinates":[[[-1.133635,53.984765],[-1.128239,53.979212],[-1.126311,53.977512],[-1.11706,53.968102],[-1.110892,53.964474],[-1.10299,53.960279],[-1.092967,53.955175],[-1.082174,53.962433],[-1.08121,53.981252],[-1.091811,53.99757],[-1.109736,53.994057],[-1.123228,53.990658],[-1.133635,53.984765]]]}},{"type":"Feature","properties":{},"geometry":{"type":"Polygon","coordinates":[[[-1.086568,53.959324],[-1.093212,53.954899],[-1.12087,53.923957],[-1.127441,53.923147],[-1.140605,53.921622],[-1.151698,53.920185],[-1.14482,53.907117],[-1.092745,53.917012],[-1.077199,53.930009],[-1.084497,53.941868],[-1.081727,53.946005],[-1.079079,53.949317],[-1.079162,53.951046],[-1.086568,53.959324]]]}}]}